KUIPER-00035            
1 63748U 25088AA  25251.24172268  .00004315  00000+0  59418-3 0  9990
2 63748  51.9009 200.8819 0005132 187.7709 172.3175 14.79970380 20491
KUIPER-00037            
1 63749U 25088AB  25251.24335713  .00001593  00000+0  23807-3 0  9995
2 63749  51.8986 199.8398 0006922 128.2263 231.9324 14.79927476 21292
KUIPER-00038            
1 63750U 25088AC  25251.25002315  .00041909  00000+0  40536-2 0  9999
2 63750  51.8940 184.8747 0005717 186.0814 102.6773 14.92358742  5698
KUIPER-00039            
1 64500U 25134A   25251.25002315  .00005721  00000+0  31754-3 0  9990
2 64500  51.8852 322.5378 0011782  40.9423 106.5847 15.15086797  5642
KUIPER-00040            
1 64501U 25134B   25251.25002315  .00005912  00000+0  78622-3 0  9998
2 64501  51.8992 330.9963 0017674  32.0495 129.7282 14.80799179  5712
KUIPER-00041            
1 64502U 25134C   25250.94808684  .00004324  00000+0  59603-3 0  9991
2 64502  51.9002 333.6851 0014417  26.0854 334.0832 14.79879690 12834
KUIPER-00042            
1 64503U 25134D   25251.25002315  .00006324  00000+0  70712-3 0  9990
2 64503  51.8951 328.4851 0014268  35.3416  39.9459 14.87957860  4023
KUIPER-00043            
1 64504U 25134E   25251.25002315  .00007408  00000+0  42939-3 0  9995
2 64504  51.8836 323.4301 0006715  29.7974  86.3198 15.13122323  5817
